[
  {
    "COMMENT": "GENERATED VIA SPACETRACK.ORG API",
    "ORIGINATOR": "18 SPCS",
    "NORAD_CAT_ID": "48621",
    "OBJECT_NAME": "HAIYANG 2D",
    "OBJECT_TYPE": "PAYLOAD",
    "CLASSIFICATION_TYPE": "U",
    "INTLDES": "21043A",
    "EPOCH": "2023-04-20 18:09:45",
    "EPOCH_MICROSECONDS": "788544",
    "MEAN_MOTION": "13.8337458",
    "ECCENTRICITY": "0.0009291",
    "INCLINATION": "65.9983",
    "RA_OF_ASC_NODE": "296.3491",
    "ARG_OF_PERICENTER": "254.6979",
    "MEAN_ANOMALY": "105.3063",
    "EPHEMERIS_TYPE": "0",
    "ELEMENT_SET_NO": "999",
    "REV_AT_EPOCH": "9704",
    "BSTAR": "0.000094203",
    "MEAN_MOTION_DOT": "0.00000022",
    "MEAN_MOTION_DDOT": "0",
    "FILE": "3891109",
    "TLE_LINE0": "0 HAIYANG 2D",
    "TLE_LINE1": "1 48621U 21043A   23110.75677996  .00000022  00000-0  94203-4 0  9990",
    "TLE_LINE2": "2 48621  65.9983 296.3491 0009291 254.6979 105.3063 13.83374580 97040",
    "OBJECT_ID": "2021-043A",
    "OBJECT_NUMBER": "48621",
    "SEMIMAJOR_AXIS": "7330.079",
    "PERIOD": "104.093",
    "APOGEE": "958.754",
    "PERIGEE": "945.133",
    "DECAYED": "0"
  },
  {
    "COMMENT": "GENERATED VIA SPACETRACK.ORG API",
    "ORIGINATOR": "18 SPCS",
    "NORAD_CAT_ID": "48621",
    "OBJECT_NAME": "HAIYANG 2D",
    "OBJECT_TYPE": "PAYLOAD",
    "CLASSIFICATION_TYPE": "U",
    "INTLDES": "21043A",
    "EPOCH": "2023-04-21 02:50:17",
    "EPOCH_MICROSECONDS": "107584",
    "MEAN_MOTION": "13.83374744",
    "ECCENTRICITY": "0.0009287",
    "INCLINATION": "65.9978",
    "RA_OF_ASC_NODE": "295.4487",
    "ARG_OF_PERICENTER": "254.843",
    "MEAN_ANOMALY": "105.1616",
    "EPHEMERIS_TYPE": "0",
    "ELEMENT_SET_NO": "999",
    "REV_AT_EPOCH": "9709",
    "BSTAR": "0.00010092",
    "MEAN_MOTION_DOT": "0.0000003",
    "MEAN_MOTION_DDOT": "0",
    "FILE": "3891293",
    "TLE_LINE0": "0 HAIYANG 2D",
    "TLE_LINE1": "1 48621U 21043A   23111.11825356  .00000030  00000-0  10092-3 0  9998",
    "TLE_LINE2": "2 48621  65.9978 295.4487 0009287 254.8430 105.1616 13.83374744 97097",
    "OBJECT_ID": "2021-043A",
    "OBJECT_NUMBER": "48621",
    "SEMIMAJOR_AXIS": "7330.078",
    "PERIOD": "104.093",
    "APOGEE": "958.751",
    "PERIGEE": "945.136",
    "DECAYED": "0"
  },
  {
    "COMMENT": "GENERATED VIA SPACETRACK.ORG API",
    "ORIGINATOR": "18 SPCS",
    "NORAD_CAT_ID": "48621",
    "OBJECT_NAME": "HAIYANG 2D",
    "OBJECT_TYPE": "PAYLOAD",
    "CLASSIFICATION_TYPE": "U",
    "INTLDES": "21043A",
    "EPOCH": "2023-04-21 11:30:48",
    "EPOCH_MICROSECONDS": "422304",
    "MEAN_MOTION": "13.8337482",
    "ECCENTRICITY": "0.0009288",
    "INCLINATION": "65.9978",
    "RA_OF_ASC_NODE": "294.5489",
    "ARG_OF_PERICENTER": "254.6665",
    "MEAN_ANOMALY": "105.3376",
    "EPHEMERIS_TYPE": "0",
    "ELEMENT_SET_NO": "999",
    "REV_AT_EPOCH": "9714",
    "BSTAR": "0.00010049",
    "MEAN_MOTION_DOT": "0.00000029",
    "MEAN_MOTION_DDOT": "0",
    "FILE": "3891476",
    "TLE_LINE0": "0 HAIYANG 2D",
    "TLE_LINE1": "1 48621U 21043A   23111.47972711  .00000029  00000-0  10049-3 0  9995",
    "TLE_LINE2": "2 48621  65.9978 294.5489 0009288 254.6665 105.3376 13.83374820 97144",
    "OBJECT_ID": "2021-043A",
    "OBJECT_NUMBER": "48621",
    "SEMIMAJOR_AXIS": "7330.078",
    "PERIOD": "104.093",
    "APOGEE": "958.751",
    "PERIGEE": "945.135",
    "DECAYED": "0"
  },
  {
    "COMMENT": "GENERATED VIA SPACETRACK.ORG API",
    "ORIGINATOR": "18 SPCS",
    "NORAD_CAT_ID": "48621",
    "OBJECT_NAME": "HAIYANG 2D",
    "OBJECT_TYPE": "PAYLOAD",
    "CLASSIFICATION_TYPE": "U",
    "INTLDES": "21043A",
    "EPOCH": "2023-04-21 11:30:48",
    "EPOCH_MICROSECONDS": "422304",
    "MEAN_MOTION": "13.8337482",
    "ECCENTRICITY": "0.0009288",
    "INCLINATION": "65.9978",
    "RA_OF_ASC_NODE": "294.5489",
    "ARG_OF_PERICENTER": "254.6665",
    "MEAN_ANOMALY": "105.3376",
    "EPHEMERIS_TYPE": "0",
    "ELEMENT_SET_NO": "999",
    "REV_AT_EPOCH": "9714",
    "BSTAR": "0.00010049",
    "MEAN_MOTION_DOT": "0.00000029",
    "MEAN_MOTION_DDOT": "0",
    "FILE": "3891529",
    "TLE_LINE0": "0 HAIYANG 2D",
    "TLE_LINE1": "1 48621U 21043A   23111.47972711  .00000029  00000-0  10049-3 0  9995",
    "TLE_LINE2": "2 48621  65.9978 294.5489 0009288 254.6665 105.3376 13.83374820 97144",
    "OBJECT_ID": "2021-043A",
    "OBJECT_NUMBER": "48621",
    "SEMIMAJOR_AXIS": "7330.078",
    "PERIOD": "104.093",
    "APOGEE": "958.751",
    "PERIGEE": "945.135",
    "DECAYED": "0"
  },
  {
    "COMMENT": "GENERATED VIA SPACETRACK.ORG API",
    "ORIGINATOR": "18 SPCS",
    "NORAD_CAT_ID": "48621",
    "OBJECT_NAME": "HAIYANG 2D",
    "OBJECT_TYPE": "PAYLOAD",
    "CLASSIFICATION_TYPE": "U",
    "INTLDES": "21043A",
    "EPOCH": "2023-04-21 20:11:19",
    "EPOCH_MICROSECONDS": "763808",
    "MEAN_MOTION": "13.83374806",
    "ECCENTRICITY": "0.0009245",
    "INCLINATION": "65.9977",
    "RA_OF_ASC_NODE": "293.648",
    "ARG_OF_PERICENTER": "255.1471",
    "MEAN_ANOMALY": "104.8561",
    "EPHEMERIS_TYPE": "0",
    "ELEMENT_SET_NO": "999",
    "REV_AT_EPOCH": "9719",
    "BSTAR": "0.00009829",
    "MEAN_MOTION_DOT": "0.00000027",
    "MEAN_MOTION_DDOT": "0",
    "FILE": "3891716",
    "TLE_LINE0": "0 HAIYANG 2D",
    "TLE_LINE1": "1 48621U 21043A   23111.84120097  .00000027  00000-0  98290-4 0  9991",
    "TLE_LINE2": "2 48621  65.9977 293.6480 0009245 255.1471 104.8561 13.83374806 97197",
    "OBJECT_ID": "2021-043A",
    "OBJECT_NUMBER": "48621",
    "SEMIMAJOR_AXIS": "7330.078",
    "PERIOD": "104.093",
    "APOGEE": "958.720",
    "PERIGEE": "945.166",
    "DECAYED": "0"
  },
  {
    "COMMENT": "GENERATED VIA SPACETRACK.ORG API",
    "ORIGINATOR": "18 SPCS",
    "NORAD_CAT_ID": "48621",
    "OBJECT_NAME": "HAIYANG 2D",
    "OBJECT_TYPE": "PAYLOAD",
    "CLASSIFICATION_TYPE": "U",
    "INTLDES": "21043A",
    "EPOCH": "2023-04-22 04:51:51",
    "EPOCH_MICROSECONDS": "113952",
    "MEAN_MOTION": "13.833749",
    "ECCENTRICITY": "0.0009205",
    "INCLINATION": "65.9977",
    "RA_OF_ASC_NODE": "292.7473",
    "ARG_OF_PERICENTER": "255.8265",
    "MEAN_ANOMALY": "104.1782",
    "EPHEMERIS_TYPE": "0",
    "ELEMENT_SET_NO": "999",
    "REV_AT_EPOCH": "9724",
    "BSTAR": "0.000096841",
    "MEAN_MOTION_DOT": "0.00000025",
    "MEAN_MOTION_DDOT": "0",
    "FILE": "3892050",
    "TLE_LINE0": "0 HAIYANG 2D",
    "TLE_LINE1": "1 48621U 21043A   23112.20267493  .00000025  00000-0  96841-4 0  9992",
    "TLE_LINE2": "2 48621  65.9977 292.7473 0009205 255.8265 104.1782 13.83374900 97242",
    "OBJECT_ID": "2021-043A",
    "OBJECT_NUMBER": "48621",
    "SEMIMAJOR_AXIS": "7330.078",
    "PERIOD": "104.093",
    "APOGEE": "958.690",
    "PERIGEE": "945.195",
    "DECAYED": "0"
  },
  {
    "COMMENT": "GENERATED VIA SPACETRACK.ORG API",
    "ORIGINATOR": "18 SPCS",
    "NORAD_CAT_ID": "48621",
    "OBJECT_NAME": "HAIYANG 2D",
    "OBJECT_TYPE": "PAYLOAD",
    "CLASSIFICATION_TYPE": "U",
    "INTLDES": "21043A",
    "EPOCH": "2023-04-22 13:32:22",
    "EPOCH_MICROSECONDS": "433856",
    "MEAN_MOTION": "13.8337494",
    "ECCENTRICITY": "0.0009193",
    "INCLINATION": "65.9978",
    "RA_OF_ASC_NODE": "291.8475",
    "ARG_OF_PERICENTER": "255.6627",
    "MEAN_ANOMALY": "104.3417",
    "EPHEMERIS_TYPE": "0",
    "ELEMENT_SET_NO": "999",
    "REV_AT_EPOCH": "9729",
    "BSTAR": "0.000092922",
    "MEAN_MOTION_DOT": "0.00000021",
    "MEAN_MOTION_DDOT": "0",
    "FILE": "3892071",
    "TLE_LINE0": "0 HAIYANG 2D",
    "TLE_LINE1": "1 48621U 21043A   23112.56414854  .00000021  00000-0  92922-4 0  9998",
    "TLE_LINE2": "2 48621  65.9978 291.8475 0009193 255.6627 104.3417 13.83374940 97297",
    "OBJECT_ID": "2021-043A",
    "OBJECT_NUMBER": "48621",
    "SEMIMAJOR_AXIS": "7330.078",
    "PERIOD": "104.093",
    "APOGEE": "958.681",
    "PERIGEE": "945.204",
    "DECAYED": "0"
  },
  {
    "COMMENT": "GENERATED VIA SPACETRACK.ORG API",
    "ORIGINATOR": "18 SPCS",
    "NORAD_CAT_ID": "48621",
    "OBJECT_NAME": "HAIYANG 2D",
    "OBJECT_TYPE": "PAYLOAD",
    "CLASSIFICATION_TYPE": "U",
    "INTLDES": "21043A",
    "EPOCH": "2023-04-22 18:44:41",
    "EPOCH_MICROSECONDS": "232192",
    "MEAN_MOTION": "13.83374977",
    "ECCENTRICITY": "0.0009191",
    "INCLINATION": "65.9979",
    "RA_OF_ASC_NODE": "291.3076",
    "ARG_OF_PERICENTER": "255.6155",
    "MEAN_ANOMALY": "104.3888",
    "EPHEMERIS_TYPE": "0",
    "ELEMENT_SET_NO": "999",
    "REV_AT_EPOCH": "9732",
    "BSTAR": "0.000094301",
    "MEAN_MOTION_DOT": "0.00000023",
    "MEAN_MOTION_DDOT": "0",
    "FILE": "3892257",
    "TLE_LINE0": "0 HAIYANG 2D",
    "TLE_LINE1": "1 48621U 21043A   23112.78103278  .00000023  00000-0  94301-4 0  9992",
    "TLE_LINE2": "2 48621  65.9979 291.3076 0009191 255.6155 104.3888 13.83374977 97320",
    "OBJECT_ID": "2021-043A",
    "OBJECT_NUMBER": "48621",
    "SEMIMAJOR_AXIS": "7330.077",
    "PERIOD": "104.093",
    "APOGEE": "958.680",
    "PERIGEE": "945.205",
    "DECAYED": "0"
  }
]